{"type": "FeatureCollection", "name": "Synthetic AV Corridor R-01", "crs": {"type": "name", "properties": {"name": "EPSG:4326"}}, "features": [{"type": "Feature", "properties": {"segment_id": "S001", "road_group": "MAIN", "lanes": 3, "speed_limit_kmh": 110, "synthetic": true}, "geometry": {"type": "LineString", "coordinates": [[38.0, 56.0], [38.1606442, 56.0]]}}, {"type": "Feature", "properties": {"segment_id": "S002", "road_group": "MAIN", "lanes": 3, "speed_limit_kmh": 110, "synthetic": true}, "geometry": {"type": "LineString", "coordinates": [[38.1606442, 56.0], [38.0, 56.0]]}}, {"type": "Feature", "properties": {"segment_id": "S003", "road_group": "MAIN", "lanes": 3, "speed_limit_kmh": 110, "synthetic": true}, "geometry": {"type": "LineString", "coordinates": [[38.1606442, 56.0], [38.3212885, 56.0]]}}, {"type": "Feature", "properties": {"segment_id": "S004", "road_group": "MAIN", "lanes": 3, "speed_limit_kmh": 110, "synthetic": true}, "geometry": {"type": "LineString", "coordinates": [[38.3212885, 56.0], [38.1606442, 56.0]]}}, {"type": "Feature", "properties": {"segment_id": "S005", "road_group": "MAIN", "lanes": 3, "speed_limit_kmh": 110, "synthetic": true}, "geometry": {"type": "LineString", "coordinates": [[38.3212885, 56.0], [38.4819327, 56.0]]}}, {"type": "Feature", "properties": {"segment_id": "S006", "road_group": "MAIN", "lanes": 3, "speed_limit_kmh": 110, "synthetic": true}, "geometry": {"type": "LineString", "coordinates": [[38.4819327, 56.0], [38.3212885, 56.0]]}}, {"type": "Feature", "properties": {"segment_id": "S007", "road_group": "MAIN", "lanes": 4, "speed_limit_kmh": 110, "synthetic": true}, "geometry": {"type": "LineString", "coordinates": [[38.4819327, 56.0], [38.6425769, 56.0]]}}, {"type": "Feature", "properties": {"segment_id": "S008", "road_group": "MAIN", "lanes": 4, "speed_limit_kmh": 110, "synthetic": true}, "geometry": {"type": "LineString", "coordinates": [[38.6425769, 56.0], [38.4819327, 56.0]]}}, {"type": "Feature", "properties": {"segment_id": "S009", "road_group": "MAIN", "lanes": 3, "speed_limit_kmh": 110, "synthetic": true}, "geometry": {"type": "LineString", "coordinates": [[38.6425769, 56.0], [38.8032212, 56.0]]}}, {"type": "Feature", "properties": {"segment_id": "S010", "road_group": "MAIN", "lanes": 3, "speed_limit_kmh": 110, "synthetic": true}, "geometry": {"type": "LineString", "coordinates": [[38.8032212, 56.0], [38.6425769, 56.0]]}}, {"type": "Feature", "properties": {"segment_id": "S011", "road_group": "MAIN", "lanes": 3, "speed_limit_kmh": 110, "synthetic": true}, "geometry": {"type": "LineString", "coordinates": [[38.8032212, 56.0], [38.9638654, 56.0]]}}, {"type": "Feature", "properties": {"segment_id": "S012", "road_group": "MAIN", "lanes": 3, "speed_limit_kmh": 110, "synthetic": true}, "geometry": {"type": "LineString", "coordinates": [[38.9638654, 56.0], [38.8032212, 56.0]]}}, {"type": "Feature", "properties": {"segment_id": "S013", "road_group": "MAIN", "lanes": 3, "speed_limit_kmh": 110, "synthetic": true}, "geometry": {"type": "LineString", "coordinates": [[38.9638654, 56.0], [39.1245097, 56.0]]}}, {"type": "Feature", "properties": {"segment_id": "S014", "road_group": "MAIN", "lanes": 3, "speed_limit_kmh": 110, "synthetic": true}, "geometry": {"type": "LineString", "coordinates": [[39.1245097, 56.0], [38.9638654, 56.0]]}}, {"type": "Feature", "properties": {"segment_id": "S015", "road_group": "MAIN", "lanes": 3, "speed_limit_kmh": 110, "synthetic": true}, "geometry": {"type": "LineString", "coordinates": [[39.1245097, 56.0], [39.2851539, 56.0]]}}, {"type": "Feature", "properties": {"segment_id": "S016", "road_group": "MAIN", "lanes": 3, "speed_limit_kmh": 110, "synthetic": true}, "geometry": {"type": "LineString", "coordinates": [[39.2851539, 56.0], [39.1245097, 56.0]]}}, {"type": "Feature", "properties": {"segment_id": "S017", "road_group": "MAIN", "lanes": 3, "speed_limit_kmh": 110, "synthetic": true}, "geometry": {"type": "LineString", "coordinates": [[39.2851539, 56.0], [39.4457981, 56.0]]}}, {"type": "Feature", "properties": {"segment_id": "S018", "road_group": "MAIN", "lanes": 3, "speed_limit_kmh": 110, "synthetic": true}, "geometry": {"type": "LineString", "coordinates": [[39.4457981, 56.0], [39.2851539, 56.0]]}}, {"type": "Feature", "properties": {"segment_id": "S019", "road_group": "MAIN", "lanes": 3, "speed_limit_kmh": 110, "synthetic": true}, "geometry": {"type": "LineString", "coordinates": [[39.4457981, 56.0], [39.6064424, 56.0]]}}, {"type": "Feature", "properties": {"segment_id": "S020", "road_group": "MAIN", "lanes": 3, "speed_limit_kmh": 110, "synthetic": true}, "geometry": {"type": "LineString", "coordinates": [[39.6064424, 56.0], [39.4457981, 56.0]]}}, {"type": "Feature", "properties": {"segment_id": "S021", "road_group": "MAIN", "lanes": 3, "speed_limit_kmh": 110, "synthetic": true}, "geometry": {"type": "LineString", "coordinates": [[39.6064424, 56.0], [39.7670866, 56.0]]}}, {"type": "Feature", "properties": {"segment_id": "S022", "road_group": "MAIN", "lanes": 3, "speed_limit_kmh": 110, "synthetic": true}, "geometry": {"type": "LineString", "coordinates": [[39.7670866, 56.0], [39.6064424, 56.0]]}}, {"type": "Feature", "properties": {"segment_id": "S023", "road_group": "MAIN", "lanes": 3, "speed_limit_kmh": 110, "synthetic": true}, "geometry": {"type": "LineString", "coordinates": [[39.7670866, 56.0], [39.9277308, 56.0]]}}, {"type": "Feature", "properties": {"segment_id": "S024", "road_group": "MAIN", "lanes": 3, "speed_limit_kmh": 110, "synthetic": true}, "geometry": {"type": "LineString", "coordinates": [[39.9277308, 56.0], [39.7670866, 56.0]]}}, {"type": "Feature", "properties": {"segment_id": "S025", "road_group": "MAIN", "lanes": 4, "speed_limit_kmh": 110, "synthetic": true}, "geometry": {"type": "LineString", "coordinates": [[39.9277308, 56.0], [40.0883751, 56.0]]}}, {"type": "Feature", "properties": {"segment_id": "S026", "road_group": "MAIN", "lanes": 4, "speed_limit_kmh": 110, "synthetic": true}, "geometry": {"type": "LineString", "coordinates": [[40.0883751, 56.0], [39.9277308, 56.0]]}}, {"type": "Feature", "properties": {"segment_id": "S027", "road_group": "MAIN", "lanes": 3, "speed_limit_kmh": 110, "synthetic": true}, "geometry": {"type": "LineString", "coordinates": [[40.0883751, 56.0], [40.2490193, 56.0]]}}, {"type": "Feature", "properties": {"segment_id": "S028", "road_group": "MAIN", "lanes": 3, "speed_limit_kmh": 110, "synthetic": true}, "geometry": {"type": "LineString", "coordinates": [[40.2490193, 56.0], [40.0883751, 56.0]]}}, {"type": "Feature", "properties": {"segment_id": "S029", "road_group": "MAIN", "lanes": 3, "speed_limit_kmh": 110, "synthetic": true}, "geometry": {"type": "LineString", "coordinates": [[40.2490193, 56.0], [40.4096636, 56.0]]}}, {"type": "Feature", "properties": {"segment_id": "S030", "road_group": "MAIN", "lanes": 3, "speed_limit_kmh": 110, "synthetic": true}, "geometry": {"type": "LineString", "coordinates": [[40.4096636, 56.0], [40.2490193, 56.0]]}}, {"type": "Feature", "properties": {"segment_id": "S031", "road_group": "NORTH", "lanes": 2, "speed_limit_kmh": 90, "synthetic": true}, "geometry": {"type": "LineString", "coordinates": [[38.4819327, 56.0], [38.4819327, 56.161696]]}}, {"type": "Feature", "properties": {"segment_id": "S032", "road_group": "NORTH", "lanes": 2, "speed_limit_kmh": 90, "synthetic": true}, "geometry": {"type": "LineString", "coordinates": [[38.4819327, 56.161696], [38.4819327, 56.0]]}}, {"type": "Feature", "properties": {"segment_id": "S033", "road_group": "NORTH", "lanes": 2, "speed_limit_kmh": 100, "synthetic": true}, "geometry": {"type": "LineString", "coordinates": [[38.4819327, 56.161696], [38.6626575, 56.1737279]]}}, {"type": "Feature", "properties": {"segment_id": "S034", "road_group": "NORTH", "lanes": 2, "speed_limit_kmh": 100, "synthetic": true}, "geometry": {"type": "LineString", "coordinates": [[38.6626575, 56.1737279], [38.4819327, 56.161696]]}}, {"type": "Feature", "properties": {"segment_id": "S035", "road_group": "NORTH", "lanes": 2, "speed_limit_kmh": 100, "synthetic": true}, "geometry": {"type": "LineString", "coordinates": [[38.6626575, 56.1737279], [38.8433822, 56.1839281]]}}, {"type": "Feature", "properties": {"segment_id": "S036", "road_group": "NORTH", "lanes": 2, "speed_limit_kmh": 100, "synthetic": true}, "geometry": {"type": "LineString", "coordinates": [[38.8433822, 56.1839281], [38.6626575, 56.1737279]]}}, {"type": "Feature", "properties": {"segment_id": "S037", "road_group": "NORTH", "lanes": 2, "speed_limit_kmh": 100, "synthetic": true}, "geometry": {"type": "LineString", "coordinates": [[38.8433822, 56.1839281], [39.024107, 56.1907436]]}}, {"type": "Feature", "properties": {"segment_id": "S038", "road_group": "NORTH", "lanes": 2, "speed_limit_kmh": 100, "synthetic": true}, "geometry": {"type": "LineString", "coordinates": [[39.024107, 56.1907436], [38.8433822, 56.1839281]]}}, {"type": "Feature", "properties": {"segment_id": "S039", "road_group": "NORTH", "lanes": 2, "speed_limit_kmh": 100, "synthetic": true}, "geometry": {"type": "LineString", "coordinates": [[39.024107, 56.1907436], [39.2048318, 56.1931369]]}}, {"type": "Feature", "properties": {"segment_id": "S040", "road_group": "NORTH", "lanes": 2, "speed_limit_kmh": 100, "synthetic": true}, "geometry": {"type": "LineString", "coordinates": [[39.2048318, 56.1931369], [39.024107, 56.1907436]]}}, {"type": "Feature", "properties": {"segment_id": "S041", "road_group": "NORTH", "lanes": 2, "speed_limit_kmh": 100, "synthetic": true}, "geometry": {"type": "LineString", "coordinates": [[39.2048318, 56.1931369], [39.3855565, 56.1907436]]}}, {"type": "Feature", "properties": {"segment_id": "S042", "road_group": "NORTH", "lanes": 2, "speed_limit_kmh": 100, "synthetic": true}, "geometry": {"type": "LineString", "coordinates": [[39.3855565, 56.1907436], [39.2048318, 56.1931369]]}}, {"type": "Feature", "properties": {"segment_id": "S043", "road_group": "NORTH", "lanes": 2, "speed_limit_kmh": 100, "synthetic": true}, "geometry": {"type": "LineString", "coordinates": [[39.3855565, 56.1907436], [39.5662813, 56.1839281]]}}, {"type": "Feature", "properties": {"segment_id": "S044", "road_group": "NORTH", "lanes": 2, "speed_limit_kmh": 100, "synthetic": true}, "geometry": {"type": "LineString", "coordinates": [[39.5662813, 56.1839281], [39.3855565, 56.1907436]]}}, {"type": "Feature", "properties": {"segment_id": "S045", "road_group": "NORTH", "lanes": 2, "speed_limit_kmh": 100, "synthetic": true}, "geometry": {"type": "LineString", "coordinates": [[39.5662813, 56.1839281], [39.7470061, 56.1737279]]}}, {"type": "Feature", "properties": {"segment_id": "S046", "road_group": "NORTH", "lanes": 2, "speed_limit_kmh": 100, "synthetic": true}, "geometry": {"type": "LineString", "coordinates": [[39.7470061, 56.1737279], [39.5662813, 56.1839281]]}}, {"type": "Feature", "properties": {"segment_id": "S047", "road_group": "NORTH", "lanes": 2, "speed_limit_kmh": 100, "synthetic": true}, "geometry": {"type": "LineString", "coordinates": [[39.7470061, 56.1737279], [39.9277308, 56.161696]]}}, {"type": "Feature", "properties": {"segment_id": "S048", "road_group": "NORTH", "lanes": 2, "speed_limit_kmh": 100, "synthetic": true}, "geometry": {"type": "LineString", "coordinates": [[39.9277308, 56.161696], [39.7470061, 56.1737279]]}}, {"type": "Feature", "properties": {"segment_id": "S049", "road_group": "NORTH", "lanes": 2, "speed_limit_kmh": 90, "synthetic": true}, "geometry": {"type": "LineString", "coordinates": [[39.9277308, 56.161696], [39.9277308, 56.0]]}}, {"type": "Feature", "properties": {"segment_id": "S050", "road_group": "NORTH", "lanes": 2, "speed_limit_kmh": 90, "synthetic": true}, "geometry": {"type": "LineString", "coordinates": [[39.9277308, 56.0], [39.9277308, 56.161696]]}}, {"type": "Feature", "properties": {"segment_id": "S051", "road_group": "SOUTH", "lanes": 2, "speed_limit_kmh": 90, "synthetic": true}, "geometry": {"type": "LineString", "coordinates": [[38.8032212, 56.0], [38.8032212, 55.8203378]]}}, {"type": "Feature", "properties": {"segment_id": "S052", "road_group": "SOUTH", "lanes": 2, "speed_limit_kmh": 90, "synthetic": true}, "geometry": {"type": "LineString", "coordinates": [[38.8032212, 55.8203378], [38.8032212, 56.0]]}}, {"type": "Feature", "properties": {"segment_id": "S053", "road_group": "SOUTH", "lanes": 2, "speed_limit_kmh": 90, "synthetic": true}, "geometry": {"type": "LineString", "coordinates": [[38.8032212, 55.8203378], [38.983946, 55.806587]]}}, {"type": "Feature", "properties": {"segment_id": "S054", "road_group": "SOUTH", "lanes": 2, "speed_limit_kmh": 90, "synthetic": true}, "geometry": {"type": "LineString", "coordinates": [[38.983946, 55.806587], [38.8032212, 55.8203378]]}}, {"type": "Feature", "properties": {"segment_id": "S055", "road_group": "SOUTH", "lanes": 2, "speed_limit_kmh": 90, "synthetic": true}, "geometry": {"type": "LineString", "coordinates": [[38.983946, 55.806587], [39.1646707, 55.7949297]]}}, {"type": "Feature", "properties": {"segment_id": "S056", "road_group": "SOUTH", "lanes": 2, "speed_limit_kmh": 90, "synthetic": true}, "geometry": {"type": "LineString", "coordinates": [[39.1646707, 55.7949297], [38.983946, 55.806587]]}}, {"type": "Feature", "properties": {"segment_id": "S057", "road_group": "SOUTH", "lanes": 2, "speed_limit_kmh": 90, "synthetic": true}, "geometry": {"type": "LineString", "coordinates": [[39.1646707, 55.7949297], [39.3453955, 55.7871405]]}}, {"type": "Feature", "properties": {"segment_id": "S058", "road_group": "SOUTH", "lanes": 2, "speed_limit_kmh": 90, "synthetic": true}, "geometry": {"type": "LineString", "coordinates": [[39.3453955, 55.7871405], [39.1646707, 55.7949297]]}}, {"type": "Feature", "properties": {"segment_id": "S059", "road_group": "SOUTH", "lanes": 2, "speed_limit_kmh": 90, "synthetic": true}, "geometry": {"type": "LineString", "coordinates": [[39.3453955, 55.7871405], [39.5261203, 55.7844053]]}}, {"type": "Feature", "properties": {"segment_id": "S060", "road_group": "SOUTH", "lanes": 2, "speed_limit_kmh": 90, "synthetic": true}, "geometry": {"type": "LineString", "coordinates": [[39.5261203, 55.7844053], [39.3453955, 55.7871405]]}}, {"type": "Feature", "properties": {"segment_id": "S061", "road_group": "SOUTH", "lanes": 2, "speed_limit_kmh": 90, "synthetic": true}, "geometry": {"type": "LineString", "coordinates": [[39.5261203, 55.7844053], [39.706845, 55.7871405]]}}, {"type": "Feature", "properties": {"segment_id": "S062", "road_group": "SOUTH", "lanes": 2, "speed_limit_kmh": 90, "synthetic": true}, "geometry": {"type": "LineString", "coordinates": [[39.706845, 55.7871405], [39.5261203, 55.7844053]]}}, {"type": "Feature", "properties": {"segment_id": "S063", "road_group": "SOUTH", "lanes": 2, "speed_limit_kmh": 90, "synthetic": true}, "geometry": {"type": "LineString", "coordinates": [[39.706845, 55.7871405], [39.8875698, 55.7949297]]}}, {"type": "Feature", "properties": {"segment_id": "S064", "road_group": "SOUTH", "lanes": 2, "speed_limit_kmh": 90, "synthetic": true}, "geometry": {"type": "LineString", "coordinates": [[39.8875698, 55.7949297], [39.706845, 55.7871405]]}}, {"type": "Feature", "properties": {"segment_id": "S065", "road_group": "SOUTH", "lanes": 2, "speed_limit_kmh": 90, "synthetic": true}, "geometry": {"type": "LineString", "coordinates": [[39.8875698, 55.7949297], [40.0682946, 55.806587]]}}, {"type": "Feature", "properties": {"segment_id": "S066", "road_group": "SOUTH", "lanes": 2, "speed_limit_kmh": 90, "synthetic": true}, "geometry": {"type": "LineString", "coordinates": [[40.0682946, 55.806587], [39.8875698, 55.7949297]]}}, {"type": "Feature", "properties": {"segment_id": "S067", "road_group": "SOUTH", "lanes": 2, "speed_limit_kmh": 90, "synthetic": true}, "geometry": {"type": "LineString", "coordinates": [[40.0682946, 55.806587], [40.2490193, 55.8203378]]}}, {"type": "Feature", "properties": {"segment_id": "S068", "road_group": "SOUTH", "lanes": 2, "speed_limit_kmh": 90, "synthetic": true}, "geometry": {"type": "LineString", "coordinates": [[40.2490193, 55.8203378], [40.0682946, 55.806587]]}}, {"type": "Feature", "properties": {"segment_id": "S069", "road_group": "SOUTH", "lanes": 2, "speed_limit_kmh": 80, "synthetic": true}, "geometry": {"type": "LineString", "coordinates": [[40.2490193, 55.8203378], [40.2490193, 56.0]]}}, {"type": "Feature", "properties": {"segment_id": "S070", "road_group": "SOUTH", "lanes": 2, "speed_limit_kmh": 80, "synthetic": true}, "geometry": {"type": "LineString", "coordinates": [[40.2490193, 56.0], [40.2490193, 55.8203378]]}}, {"type": "Feature", "properties": {"segment_id": "S071", "road_group": "CONNECTOR", "lanes": 1, "speed_limit_kmh": 70, "synthetic": true}, "geometry": {"type": "LineString", "coordinates": [[38.8433822, 56.1839281], [38.8032212, 56.0]]}}, {"type": "Feature", "properties": {"segment_id": "S072", "road_group": "CONNECTOR", "lanes": 1, "speed_limit_kmh": 70, "synthetic": true}, "geometry": {"type": "LineString", "coordinates": [[38.8032212, 56.0], [38.8433822, 56.1839281]]}}, {"type": "Feature", "properties": {"segment_id": "S073", "road_group": "CONNECTOR", "lanes": 2, "speed_limit_kmh": 70, "synthetic": true}, "geometry": {"type": "LineString", "coordinates": [[39.024107, 56.1907436], [39.1245097, 56.0]]}}, {"type": "Feature", "properties": {"segment_id": "S074", "road_group": "CONNECTOR", "lanes": 2, "speed_limit_kmh": 70, "synthetic": true}, "geometry": {"type": "LineString", "coordinates": [[39.1245097, 56.0], [39.024107, 56.1907436]]}}, {"type": "Feature", "properties": {"segment_id": "S075", "road_group": "CONNECTOR", "lanes": 2, "speed_limit_kmh": 70, "synthetic": true}, "geometry": {"type": "LineString", "coordinates": [[39.3855565, 56.1907436], [39.4457981, 56.0]]}}, {"type": "Feature", "properties": {"segment_id": "S076", "road_group": "CONNECTOR", "lanes": 2, "speed_limit_kmh": 70, "synthetic": true}, "geometry": {"type": "LineString", "coordinates": [[39.4457981, 56.0], [39.3855565, 56.1907436]]}}, {"type": "Feature", "properties": {"segment_id": "S077", "road_group": "CONNECTOR", "lanes": 1, "speed_limit_kmh": 70, "synthetic": true}, "geometry": {"type": "LineString", "coordinates": [[39.5662813, 56.1839281], [39.6064424, 56.0]]}}, {"type": "Feature", "properties": {"segment_id": "S078", "road_group": "CONNECTOR", "lanes": 1, "speed_limit_kmh": 70, "synthetic": true}, "geometry": {"type": "LineString", "coordinates": [[39.6064424, 56.0], [39.5662813, 56.1839281]]}}, {"type": "Feature", "properties": {"segment_id": "S079", "road_group": "CONNECTOR", "lanes": 2, "speed_limit_kmh": 70, "synthetic": true}, "geometry": {"type": "LineString", "coordinates": [[39.1646707, 55.7949297], [39.1245097, 56.0]]}}, {"type": "Feature", "properties": {"segment_id": "S080", "road_group": "CONNECTOR", "lanes": 2, "speed_limit_kmh": 70, "synthetic": true}, "geometry": {"type": "LineString", "coordinates": [[39.1245097, 56.0], [39.1646707, 55.7949297]]}}, {"type": "Feature", "properties": {"segment_id": "S081", "road_group": "CONNECTOR", "lanes": 2, "speed_limit_kmh": 70, "synthetic": true}, "geometry": {"type": "LineString", "coordinates": [[39.3453955, 55.7871405], [39.2851539, 56.0]]}}, {"type": "Feature", "properties": {"segment_id": "S082", "road_group": "CONNECTOR", "lanes": 2, "speed_limit_kmh": 70, "synthetic": true}, "geometry": {"type": "LineString", "coordinates": [[39.2851539, 56.0], [39.3453955, 55.7871405]]}}, {"type": "Feature", "properties": {"segment_id": "S083", "road_group": "CONNECTOR", "lanes": 1, "speed_limit_kmh": 70, "synthetic": true}, "geometry": {"type": "LineString", "coordinates": [[39.706845, 55.7871405], [39.7670866, 56.0]]}}, {"type": "Feature", "properties": {"segment_id": "S084", "road_group": "CONNECTOR", "lanes": 1, "speed_limit_kmh": 70, "synthetic": true}, "geometry": {"type": "LineString", "coordinates": [[39.7670866, 56.0], [39.706845, 55.7871405]]}}, {"type": "Feature", "properties": {"segment_id": "S085", "road_group": "CONNECTOR", "lanes": 2, "speed_limit_kmh": 70, "synthetic": true}, "geometry": {"type": "LineString", "coordinates": [[39.8875698, 55.7949297], [39.9277308, 56.0]]}}, {"type": "Feature", "properties": {"segment_id": "S086", "road_group": "CONNECTOR", "lanes": 2, "speed_limit_kmh": 70, "synthetic": true}, "geometry": {"type": "LineString", "coordinates": [[39.9277308, 56.0], [39.8875698, 55.7949297]]}}]}